{"type": "FeatureCollection", "features": [ {"type": "Feature", "properties": {"norad_id": 66869, "name": "STARLINK-36092", "group": "last-30-days", "lat": 33.30805898876702, "lon": 110.89379135182189, "alt_km": 358.58477774459516, "timestamp": "2025-12-21T22:41:40.166125+00:00", "meta": {"OBJECT_NAME": "STARLINK-36092", "OBJECT_ID": "2025-281X", "EPOCH": "2025-12-21T14:00:01.999872", "MEAN_MOTION": 15.69978543, "ECCENTRICITY": 0.0001102, "INCLINATION": 43.0003, "RA_OF_ASC_NODE": 68.2326, "ARG_OF_PERICENTER": 284.4169, "MEAN_ANOMALY": 240.3781, "EPHEMERIS_TYPE": 0, "CLASSIFICATION_TYPE": "U", "NORAD_CAT_ID": 66869, "ELEMENT_SET_NO": 999, "REV_AT_EPOCH": 284, "BSTAR": -0.017300137, "MEAN_MOTION_DOT": -0.01900216, "MEAN_MOTION_DDOT": 0}, "tle": {"line1": "1 66869U 25281X   25355.58335648 -.01900216  00000+0 -17300-1 0  9997", "line2": "2 66869  43.0003  68.2326 0001102 284.4169 240.3781 15.69978543  2848"}}, "geometry": {"type": "Point", "coordinates": [110.89379135182189, 33.30805898876702]}}, {"type": "Feature", "properties": {"norad_id": 66870, "name": "STARLINK-36114", "group": "last-30-days", "lat": 34.22002946236889, "lon": 112.92268827631227, "alt_km": 358.48732662503335, "timestamp": "2025-12-21T22:41:40.166136+00:00", "meta": {"OBJECT_NAME": "STARLINK-36114", "OBJECT_ID": "2025-281Y", "EPOCH": "2025-12-21T14:00:01.999872", "MEAN_MOTION": 15.69963549, "ECCENTRICITY": 0.00012975, "INCLINATION": 43.0004, "RA_OF_ASC_NODE": 68.2282, "ARG_OF_PERICENTER": 288.1846, "MEAN_ANOMALY": 238.5374, "EPHEMERIS_TYPE": 0, "CLASSIFICATION_TYPE": "U", "NORAD_CAT_ID": 66870, "ELEMENT_SET_NO": 999, "REV_AT_EPOCH": 271, "BSTAR": -0.017154867, "MEAN_MOTION_DOT": -0.01885126, "MEAN_MOTION_DDOT": 0}, "tle": {"line1": "1 66870U 25281Y   25355.58335648 -.01885126  00000+0 -17155-1 0  9999", "line2": "2 66870  43.0004  68.2282 0001297 288.1846 238.5374 15.69963549  2713"}}, "geometry": {"type": "Point", "coordinates": [112.92268827631227, 34.22002946236889]}}, {"type": "Feature", "properties": {"norad_id": 66871, "name": "STARLINK-36095", "group": "last-30-days", "lat": 35.096546261570424, "lon": 114.99107367315757, "alt_km": 358.32524017464766, "timestamp": "2025-12-21T22:41:40.166167+00:00", "meta": {"OBJECT_NAME": "STARLINK-36095", "OBJECT_ID": "2025-281Z", "EPOCH": "2025-12-21T14:00:01.999872", "MEAN_MOTION": 15.69981295, "ECCENTRICITY": 0.00010928, "INCLINATION": 43.0006, "RA_OF_ASC_NODE": 68.2228, "ARG_OF_PERICENTER": 285.6482, "MEAN_ANOMALY": 242.98, "EPHEMERIS_TYPE": 0, "CLASSIFICATION_TYPE": "U", "NORAD_CAT_ID": 66871, "ELEMENT_SET_NO": 999, "REV_AT_EPOCH": 284, "BSTAR": -0.017344821, "MEAN_MOTION_DOT": -0.01904758, "MEAN_MOTION_DDOT": 0}, "tle": {"line1": "1 66871U 25281Z   25355.58335648 -.01904758  00000+0 -17345-1 0  9994", "line2": "2 66871  43.0006  68.2228 0001092 285.6482 242.9800 15.69981295  2842"}}, "geometry": {"type": "Point", "coordinates": [114.99107367315757, 35.096546261570424]}}, {"type": "Feature", "properties": {"norad_id": 66872, "name": "STARLINK-36082", "group": "last-30-days", "lat": 35.937014917563694, "lon": 117.10503889158778, "alt_km": 358.23972137525834, "timestamp": "2025-12-21T22:41:40.166178+00:00", "meta": {"OBJECT_NAME": "STARLINK-36082", "OBJECT_ID": "2025-281AA", "EPOCH": "2025-12-21T14:00:01.999872", "MEAN_MOTION": 15.69974334, "ECCENTRICITY": 0.00010748, "INCLINATION": 43.0006, "RA_OF_ASC_NODE": 68.2183, "ARG_OF_PERICENTER": 283.0534, "MEAN_ANOMALY": 247.4955, "EPHEMERIS_TYPE": 0, "CLASSIFICATION_TYPE": "U", "NORAD_CAT_ID": 66872, "ELEMENT_SET_NO": 999, "REV_AT_EPOCH": 271, "BSTAR": -0.017257969, "MEAN_MOTION_DOT": -0.01895789, "MEAN_MOTION_DDOT": 0}, "tle": {"line1": "1 66872U 25281AA  25355.58335648 -.01895789  00000+0 -17258-1 0  9991", "line2": "2 66872  43.0006  68.2183 0001074 283.0534 247.4955 15.69974334  2716"}}, "geometry": {"type": "Point", "coordinates": [117.10503889158778, 35.937014917563694]}}, {"type": "Feature", "properties": {"norad_id": 66873, "name": "STARLINK-36128", "group": "last-30-days", "lat": 38.223675222331316, "lon": 123.71517056655455, "alt_km": 357.9531094444592, "timestamp": "2025-12-21T22:41:40.166189+00:00", "meta": {"OBJECT_NAME": "STARLINK-36128", "OBJECT_ID": "2025-281AB", "EPOCH": "2025-12-21T14:00:01.999872", "MEAN_MOTION": 15.69975227, "ECCENTRICITY": 0.00011046, "INCLINATION": 43.0006, "RA_OF_ASC_NODE": 68.2027, "ARG_OF_PERICENTER": 283.011, "MEAN_ANOMALY": 253.2874, "EPHEMERIS_TYPE": 0, "CLASSIFICATION_TYPE": "U", "NORAD_CAT_ID": 66873, "ELEMENT_SET_NO": 999, "REV_AT_EPOCH": 284, "BSTAR": -0.017253439, "MEAN_MOTION_DOT": -0.01895431, "MEAN_MOTION_DDOT": 0}, "tle": {"line1": "1 66873U 25281AB  25355.58335648 -.01895431  00000+0 -17253-1 0  9991", "line2": "2 66873  43.0006  68.2027 0001104 283.0110 253.2874 15.69975227  2849"}}, "geometry": {"type": "Point", "coordinates": [123.71517056655455, 38.223675222331316]}}, {"type": "Feature", "properties": {"norad_id": 66874, "name": "STARLINK-36129", "group": "last-30-days", "lat": 36.73992909046843, "lon": 119.26404009204711, "alt_km": 358.14999647340755, "timestamp": "2025-12-21T22:41:40.166203+00:00", "meta": {"OBJECT_NAME": "STARLINK-36129", "OBJECT_ID": "2025-281AC", "EPOCH": "2025-12-21T14:00:01.999872", "MEAN_MOTION": 15.69976697, "ECCENTRICITY": 0.00011139, "INCLINATION": 43.0006, "RA_OF_ASC_NODE": 68.2131, "ARG_OF_PERICENTER": 283.166, "MEAN_ANOMALY": 249.2977, "EPHEMERIS_TYPE": 0, "CLASSIFICATION_TYPE": "U", "NORAD_CAT_ID": 66874, "ELEMENT_SET_NO": 999, "REV_AT_EPOCH": 284, "BSTAR": -0.017275148, "MEAN_MOTION_DOT": -0.01897658, "MEAN_MOTION_DDOT": 0}, "tle": {"line1": "1 66874U 25281AC  25355.58335648 -.01897658  00000+0 -17275-1 0  9999", "line2": "2 66874  43.0006  68.2131 0001113 283.1660 249.2977 15.69976697  2848"}}, "geometry": {"type": "Point", "coordinates": [119.26404009204711, 36.73992909046843]}}, {"type": "Feature", "properties": {"norad_id": 66875, "name": "STARLINK-36053", "group": "last-30-days", "lat": 38.90066006496225, "lon": 126.00631885302751, "alt_km": 357.8457389470432, "timestamp": "2025-12-21T22:41:40.166213+00:00", "meta": {"OBJECT_NAME": "STARLINK-36053", "OBJECT_ID": "2025-281AD", "EPOCH": "2025-12-21T14:00:01.999872", "MEAN_MOTION": 15.69976372, "ECCENTRICITY": 0.0001062, "INCLINATION": 43.0007, "RA_OF_ASC_NODE": 68.1976, "ARG_OF_PERICENTER": 282.9867, "MEAN_ANOMALY": 255.2285, "EPHEMERIS_TYPE": 0, "CLASSIFICATION_TYPE": "U", "NORAD_CAT_ID": 66875, "ELEMENT_SET_NO": 999, "REV_AT_EPOCH": 284, "BSTAR": -0.017275765, "MEAN_MOTION_DOT": -0.01897659, "MEAN_MOTION_DDOT": 0}, "tle": {"line1": "1 66875U 25281AD  25355.58335648 -.01897659  00000+0 -17276-1 0  9992", "line2": "2 66875  43.0007  68.1976 0001062 282.9867 255.2285 15.69976372  2844"}}, "geometry": {"type": "Point", "coordinates": [126.00631885302751, 38.90066006496225]}}, {"type": "Feature", "properties": {"norad_id": 66876, "name": "STARLINK-35702", "group": "last-30-days", "lat": 37.50286332698955, "lon": 121.46771542960012, "alt_km": 358.0416945773386, "timestamp": "2025-12-21T22:41:40.166223+00:00", "meta": {"OBJECT_NAME": "STARLINK-35702", "OBJECT_ID": "2025-281AE", "EPOCH": "2025-12-21T14:00:01.999872", "MEAN_MOTION": 15.69975729, "ECCENTRICITY": 0.00011318, "INCLINATION": 43.0007, "RA_OF_ASC_NODE": 68.2082, "ARG_OF_PERICENTER": 284.428, "MEAN_ANOMALY": 249.9528, "EPHEMERIS_TYPE": 0, "CLASSIFICATION_TYPE": "U", "NORAD_CAT_ID": 66876, "ELEMENT_SET_NO": 999, "REV_AT_EPOCH": 284, "BSTAR": -0.017261884, "MEAN_MOTION_DOT": -0.01896309, "MEAN_MOTION_DDOT": 0}, "tle": {"line1": "1 66876U 25281AE  25355.58335648 -.01896309  00000+0 -17262-1 0  9999", "line2": "2 66876  43.0007  68.2082 0001131 284.4280 249.9528 15.69975729  2842"}}, "geometry": {"type": "Point", "coordinates": [121.46771542960012, 37.50286332698955]}}, {"type": "Feature", "properties": {"norad_id": 66877, "name": "ZQ-3 R/B", "group": "last-30-days", "lat": 42.88421736873685, "lon": 59.137665903462604, "alt_km": 1122.849565978272, "timestamp": "2025-12-21T22:41:40.166233+00:00", "meta": {"OBJECT_NAME": "ZQ-3 R/B", "OBJECT_ID": "2025-282A", "EPOCH": "2025-12-21T11:03:12.672576", "MEAN_MOTION": 14.77070822, "ECCENTRICITY": 0.07063528, "INCLINATION": 56.9491, "RA_OF_ASC_NODE": 23.8366, "ARG_OF_PERICENTER": 235.2806, "MEAN_ANOMALY": 117.9737, "EPHEMERIS_TYPE": 0, "CLASSIFICATION_TYPE": "U", "NORAD_CAT_ID": 66877, "ELEMENT_SET_NO": 999, "REV_AT_EPOCH": 267, "BSTAR": 0.00016829547, "MEAN_MOTION_DOT": 0.00946982, "MEAN_MOTION_DDOT": 7.791207e-06}, "tle": {"line1": "1 66877U 25282A   25355.46056334  .00946982  77912-5  16830-3 0  9994", "line2": "2 66877  56.9491  23.8366 0706352 235.2806 117.9737 14.77070822  2675"}}, "geometry": {"type": "Point", "coordinates": [59.137665903462604, 42.88421736873685]}}, {"type": "Feature", "properties": {"norad_id": 66878, "name": "STARLINK-35866", "group": "last-30-days", "lat": 44.647546817554385, "lon": 159.94672094412908, "alt_km": 340.40546154815, "timestamp": "2025-12-21T22:41:40.166243+00:00", "meta": {"OBJECT_NAME": "STARLINK-35866", "OBJECT_ID": "2025-283A", "EPOCH": "2025-12-21T14:00:01.999872", "MEAN_MOTION": 15.7418596, "ECCENTRICITY": 0.00010475, "INCLINATION": 53.1574, "RA_OF_ASC_NODE": 29.5305, "ARG_OF_PERICENTER": 85.3614, "MEAN_ANOMALY": 139.0719, "EPHEMERIS_TYPE": 0, "CLASSIFICATION_TYPE": "U", "NORAD_CAT_ID": 66878, "ELEMENT_SET_NO": 999, "REV_AT_EPOCH": 385, "BSTAR": -2.5389764e-05, "MEAN_MOTION_DOT": -4.345e-05, "MEAN_MOTION_DDOT": 0}, "tle": {"line1": "1 66878U 25283A   25355.58335648 -.00004345  00000+0 -25390-4 0  9997", "line2": "2 66878  53.1574  29.5305 0001047  85.3614 139.0719 15.74185960  3857"}}, "geometry": {"type": "Point", "coordinates": [159.94672094412908, 44.647546817554385]}}]}